{
  "type": "FeatureCollection",
  "features": [
    {
      "type": "Feature",
      "properties": {
        "norad_id": 44709,
        "name": "BEIDOU-3 IGSO-3 (C40)",
        "group": "beidou",
        "lat": -1.1479582640435002,
        "lon": -77.90558460721722,
        "alt_km": 35978.52027546313,
        "timestamp": "2025-12-12T05:47:29.036439+00:00",
        "meta_object_name": "BEIDOU-3 IGSO-3 (C40)",
        "meta_object_id": "2019-073A",
        "meta_epoch": "2025-11-20T07:11:22.740000",
        "meta_mean_motion": 1.00250097,
        "meta_eccentricity": 0.0044538,
        "meta_inclination": 55.163,
        "meta_ra_of_asc_node": 283.159,
        "meta_arg_of_pericenter": 191.5856,
        "meta_mean_anomaly": 168.2409,
        "meta_ephemeris_type": 0,
        "meta_classification_type": "U",
        "meta_norad_cat_id": 44709,
        "meta_element_set_no": 999,
        "meta_rev_at_epoch": 2236,
        "meta_bstar": 0,
        "meta_mean_motion_dot": -2.06e-06,
        "meta_mean_motion_ddot": 0,
        "tle_line1": "1 44709U 19073A   25324.29956875 -.00000206  00000+0  00000+0 0  9998",
        "tle_line2": "2 44709  55.1630 283.1590 0044538 191.5856 168.2409  1.00250097 22360"
      },
      "geometry": {
        "type": "Point",
        "coordinates": [
          -77.90558460721722,
          -1.1479582640435002
        ]
      }
    },
    {
      "type": "Feature",
      "properties": {
        "norad_id": 44793,
        "name": "BEIDOU-3 M22 (C44)",
        "group": "beidou",
        "lat": 10.379962807363983,
        "lon": -45.99764929590626,
        "alt_km": 21511.293957283226,
        "timestamp": "2025-12-12T05:47:29.036454+00:00",
        "meta_object_name": "BEIDOU-3 M22 (C44)",
        "meta_object_id": "2019-078A",
        "meta_epoch": "2025-12-10T01:47:05.181792",
        "meta_mean_motion": 1.86231719,
        "meta_eccentricity": 0.0005679,
        "meta_inclination": 54.1107,
        "meta_ra_of_asc_node": 306.4794,
        "meta_arg_of_pericenter": 23.2059,
        "meta_mean_anomaly": 336.8105,
        "meta_ephemeris_type": 0,
        "meta_classification_type": "U",
        "meta_norad_cat_id": 44793,
        "meta_element_set_no": 999,
        "meta_rev_at_epoch": 4112,
        "meta_bstar": 0,
        "meta_mean_motion_dot": -8e-07,
        "meta_mean_motion_ddot": 0,
        "tle_line1": "1 44793U 19078A   25344.07436553 -.00000080  00000+0  00000+0 0  9990",
        "tle_line2": "2 44793  54.1107 306.4794 0005679  23.2059 336.8105  1.86231719 41120"
      },
      "geometry": {
        "type": "Point",
        "coordinates": [
          -45.99764929590626,
          10.379962807363983
        ]
      }
    },
    {
      "type": "Feature",
      "properties": {
        "norad_id": 44794,
        "name": "BEIDOU-3 M21 (C43)",
        "group": "beidou",
        "lat": -52.7733947665648,
        "lon": -126.07480783006721,
        "alt_km": 21534.02060984983,
        "timestamp": "2025-12-12T05:47:29.036465+00:00",
        "meta_object_name": "BEIDOU-3 M21 (C43)",
        "meta_object_id": "2019-078B",
        "meta_epoch": "2025-12-09T03:18:47.736000",
        "meta_mean_motion": 1.86227438,
        "meta_eccentricity": 0.00038519,
        "meta_inclination": 54.0853,
        "meta_ra_of_asc_node": 306.4778,
        "meta_arg_of_pericenter": 10.0441,
        "meta_mean_anomaly": 349.953,
        "meta_ephemeris_type": 0,
        "meta_classification_type": "U",
        "meta_norad_cat_id": 44794,
        "meta_element_set_no": 999,
        "meta_rev_at_epoch": 4111,
        "meta_bstar": 0,
        "meta_mean_motion_dot": -7.6e-07,
        "meta_mean_motion_ddot": 0,
        "tle_line1": "1 44794U 19078B   25343.13805250 -.00000076  00000+0  00000+0 0  9996",
        "tle_line2": "2 44794  54.0853 306.4778 0003851  10.0441 349.9530  1.86227438 41118"
      },
      "geometry": {
        "type": "Point",
        "coordinates": [
          -126.07480783006721,
          -52.7733947665648
        ]
      }
    },
    {
      "type": "Feature",
      "properties": {
        "norad_id": 44864,
        "name": "BEIDOU-3 M19 (C41)",
        "group": "beidou",
        "lat": 48.329170126370464,
        "lon": -159.2736557445652,
        "alt_km": 21571.20232257956,
        "timestamp": "2025-12-12T05:47:29.036477+00:00",
        "meta_object_name": "BEIDOU-3 M19 (C41)",
        "meta_object_id": "2019-090A",
        "meta_epoch": "2025-12-10T23:47:39.658272",
        "meta_mean_motion": 1.86231263,
        "meta_eccentricity": 0.0017877,
        "meta_inclination": 56.392,
        "meta_ra_of_asc_node": 69.0187,
        "meta_arg_of_pericenter": 285.2046,
        "meta_mean_anomaly": 73.1126,
        "meta_ephemeris_type": 0,
        "meta_classification_type": "U",
        "meta_norad_cat_id": 44864,
        "meta_element_set_no": 999,
        "meta_rev_at_epoch": 4072,
        "meta_bstar": 0,
        "meta_mean_motion_dot": -6e-07,
        "meta_mean_motion_ddot": 0,
        "tle_line1": "1 44864U 19090A   25344.99143123 -.00000060  00000+0  00000+0 0  9990",
        "tle_line2": "2 44864  56.3920  69.0187 0017877 285.2046  73.1126  1.86231263 40726"
      },
      "geometry": {
        "type": "Point",
        "coordinates": [
          -159.2736557445652,
          48.329170126370464
        ]
      }
    },
    {
      "type": "Feature",
      "properties": {
        "norad_id": 44865,
        "name": "BEIDOU-3 M20 (C42)",
        "group": "beidou",
        "lat": -21.23349937569861,
        "lon": -96.02842887096051,
        "alt_km": 21532.535196211284,
        "timestamp": "2025-12-12T05:47:29.036488+00:00",
        "meta_object_name": "BEIDOU-3 M20 (C42)",
        "meta_object_id": "2019-090B",
        "meta_epoch": "2025-12-10T20:36:05.507712",
        "meta_mean_motion": 1.86231317,
        "meta_eccentricity": 0.0014897,
        "meta_inclination": 56.3937,
        "meta_ra_of_asc_node": 69.0576,
        "meta_arg_of_pericenter": 298.003,
        "meta_mean_anomaly": 60.7372,
        "meta_ephemeris_type": 0,
        "meta_classification_type": "U",
        "meta_norad_cat_id": 44865,
        "meta_element_set_no": 999,
        "meta_rev_at_epoch": 4070,
        "meta_bstar": 0,
        "meta_mean_motion_dot": -5.8e-07,
        "meta_mean_motion_ddot": 0,
        "tle_line1": "1 44865U 19090B   25344.85839708 -.00000058  00000+0  00000+0 0  9994",
        "tle_line2": "2 44865  56.3937  69.0576 0014897 298.0030  60.7372  1.86231317 40704"
      },
      "geometry": {
        "type": "Point",
        "coordinates": [
          -96.02842887096051,
          -21.23349937569861
        ]
      }
    },
    {
      "type": "Feature",
      "properties": {
        "norad_id": 45344,
        "name": "BEIDOU-3 G2 (C60)",
        "group": "beidou",
        "lat": -1.0407874497061744,
        "lon": -111.98071398398287,
        "alt_km": 35777.04729815807,
        "timestamp": "2025-12-12T05:47:29.036500+00:00",
        "meta_object_name": "BEIDOU-3 G2 (C60)",
        "meta_object_id": "2020-017A",
        "meta_epoch": "2025-12-11T22:27:08.686944",
        "meta_mean_motion": 1.00272909,
        "meta_eccentricity": 0.00044465,
        "meta_inclination": 2.4959,
        "meta_ra_of_asc_node": 43.8361,
        "meta_arg_of_pericenter": 266.1758,
        "meta_mean_anomaly": 187.6878,
        "meta_ephemeris_type": 0,
        "meta_classification_type": "U",
        "meta_norad_cat_id": 45344,
        "meta_element_set_no": 999,
        "meta_rev_at_epoch": 2138,
        "meta_bstar": 0,
        "meta_mean_motion_dot": -1.33e-06,
        "meta_mean_motion_ddot": 0,
        "tle_line1": "1 45344U 20017A   25345.93551721 -.00000133  00000+0  00000+0 0  9998",
        "tle_line2": "2 45344   2.4959  43.8361 0004446 266.1758 187.6878  1.00272909 21388"
      },
      "geometry": {
        "type": "Point",
        "coordinates": [
          -111.98071398398287,
          -1.0407874497061744
        ]
      }
    },
    {
      "type": "Feature",
      "properties": {
        "norad_id": 45807,
        "name": "BEIDOU-3 G3 (C61)",
        "group": "beidou",
        "lat": -1.0703920820938189,
        "lon": -81.47303830391316,
        "alt_km": 35787.61312064445,
        "timestamp": "2025-12-12T05:47:29.036512+00:00",
        "meta_object_name": "BEIDOU-3 G3 (C61)",
        "meta_object_id": "2020-040A",
        "meta_epoch": "2025-12-08T17:33:17.532288",
        "meta_mean_motion": 1.00275813,
        "meta_eccentricity": 0.00060306,
        "meta_inclination": 1.9816,
        "meta_ra_of_asc_node": 66.5886,
        "meta_arg_of_pericenter": 306.262,
        "meta_mean_anomaly": 78.7159,
        "meta_ephemeris_type": 0,
        "meta_classification_type": "U",
        "meta_norad_cat_id": 45807,
        "meta_element_set_no": 999,
        "meta_rev_at_epoch": 2016,
        "meta_bstar": 0,
        "meta_mean_motion_dot": -3.52e-06,
        "meta_mean_motion_ddot": 0,
        "tle_line1": "1 45807U 20040A   25342.73145292 -.00000352  00000+0  00000+0 0  9998",
        "tle_line2": "2 45807   1.9816  66.5886 0006030 306.2620  78.7159  1.00275813 20161"
      },
      "geometry": {
        "type": "Point",
        "coordinates": [
          -81.47303830391316,
          -1.0703920820938189
        ]
      }
    }
  ]
}